"Name","IconSWF","IconExportName","LocalizedName","SortOrder","Enabled","EnabledCN","FileName","TestLanguage","UsedSystemFont","PreferedFallbackFont","ForcedFontFullName","HelpshiftSDKLanguage","HelpshiftSDKLanguageAndroid","TestExcludes","LoadAllLanguages","ChampionshipRegisterUrl","ChampionshipRegisterUrl_cn","TermsAndServiceUrl","ParentsGuideUrl","PrivacyPolicyUrl","LaserboxUrl","LaserboxUrlCN","LaserboxStagingUrl","LaserboxStagingUrlCN","LaserboxCommunityUrl","LaserboxCommunityUrlCN","LaserboxCommunityStagingUrl","LaserboxCommunityStagingUrlCN","LaserboxEsportsUrl","LaserboxEsportsUrlCN","LaserboxEsportsStagingUrl","LaserboxEsportsStagingUrlCN","LaserboxEsportsHubUrl","LaserboxEsportsHubUrlCN","LaserboxEsportsHubStagingUrl","LaserboxEsportsHubStagingUrlCN","LaserboxLangCode","FaqUrl_ios","FaqUrl_ios_cn","FaqUrl_android","FaqUrl_android_cn","ContactUsUrl_ios","ContactUsUrl_ios_cn","ContactUsUrl_android","ContactUsUrl_android_cn","LaserboxEnabled","IsRTL","isNounAdj","SeparateThousandsWithSpaces","UseWhiteSpaceToReplaceLineBreak","UsesWhiteSpacesBetweenWords","SelfHelpUrl","SelfHelpUrlCN","FallbackToHelpshift","FallbackToHelpshiftCN","TermsAndServiceUrl_Tencent_android","ParentsGuideUrl_Tencent_android","PrivacyPolicyUrl_Tencent_android","TermsAndServiceUrl_Tencent_ios","ParentsGuideUrl_Tencent_ios","PrivacyPolicyUrl_Tencent_ios","TermsAndServiceUrl_Yoozoo","ParentsGuideUrl_Yoozoo","PrivacyPolicyUrl_Yoozoo","DeviceMigrationSelfHelpUrl"
"String","String","String","String","int","Boolean","Boolean","String","Boolean","String","String","String","String","String","String","Boolean","String","String","String","String","String","String","String","String","String","String","String","String","String","String","String","String","String","String","String","String","String","String","String","String","String","String","String","String","String","String","Boolean","Boolean","Boolean","Boolean","Boolean","Boolean","String","String","Boolean","Boolean","String","String","String","String","String","String","String","String","String","String"
"EN","sc/ui.sc","flag_gb","English",0,"true","true","localization/texts.csv",,,,,"en",,,,"http://www.supr.cl/bsc","https://www.bsesports.cn/bscrule.html","http://supercell.com/en/terms-of-service/","http://www.supercell.com/en/parents/","http://www.supercell.com/en/privacy-policy/","https://inbox.brawlstars.com/","https://brawlstars.scinbox.qq.com/","https://staging.inbox.brawlstars.com/","https://testbrawlstars.scinbox.qq.com/","https://inbox.brawlstars.com/community/","https://brawl-stars.videouploads.supercellcommunity.cn/","https://staging.inbox.brawlstars.com/community/","https://brawl-stars-stage.videouploads.supercellcommunity.cn/","https://inbox.brawlstars.com/esport/","https://brawlstars.scinbox.qq.com/esport/","https://staging.inbox.brawlstars.com/esport/","https://testbrawlstars.scinbox.qq.com/esport/","https://brawlstars.scescdn.com/en","https://bsescdn.supercellsupport.cn/en","https://brawlstars-dev.scescdn.com/en","https://bsescdn-dev.supercellsupport.cn/en",,"https://supercell.helpshift.com/a/brawl-stars/?p=ios&l=en","https://supercellcn.hsftcn.cn/a/brawl-stars-china/?p=ios&l=zh","https://supercell.helpshift.com/a/brawl-stars/?p=android&l=en","https://supercellcn.hsftcn.cn/a/brawl-stars-china/?p=android&l=zh","https://help.supercellsupport.com/brawl-stars/en/articles/contact-form.html?contact=1","https://help.supercellsupport.cn/brawl-stars/en/articles/contact-form.html?contact=1","https://help.supercellsupport.com/brawl-stars/en/articles/contact-form.html?contact=1","https://help.supercellsupport.cn/brawl-stars/en/articles/contact-form.html?contact=1",,,,,"TRUE","TRUE","https://ingame.help.supercellsupport.com/brawl-stars/en/index.html","https://game-assets.tencent-cloud.com/self-help/brawl-stars/en/index.html",,,"http://game.qq.com/contract_en.shtml","https://game.qq.com/privacy_guide_children.shtml","http://game.qq.com/privacy_guide_en.shtml","http://game.qq.com/contract_en.shtml","https://game.qq.com/privacy_guide_children.shtml","http://game.qq.com/privacy_guide_en.shtml","https://m.youzu.com/about/services.html?noheader=100&cid=m_bs_service",,"https://m.youzu.com/about/privacy.html?noheader=100&cid=m_bs_privacy","https://game-assets.tencent-cloud.com/self-help/brawl-stars/en/account/index.html"
"CN","sc/ui.sc","flag_gb","简体中文",5,"true","true","localization/cn.csv",,"STHeitiSC-Medium",,,"zh-Hans","zh_CN",,,"http://www.supr.cl/bsc","https://www.bsesports.cn/bscrule.html","http://supercell.com/en/terms-of-service/cn","http://www.supercell.com/en/parents/cn","http://www.supercell.com/en/privacy-policy/cn","https://inbox.brawlstars.com/","https://brawlstars.scinbox.qq.com/","https://staging.inbox.brawlstars.com/","https://testbrawlstars.scinbox.qq.com/",,"https://brawl-stars.videouploads.supercellcommunity.cn/",,"https://brawl-stars-stage.videouploads.supercellcommunity.cn/","https://brawlstars.scinbox.qq.com/esport/","https://brawlstars.scinbox.qq.com/esport/","https://testbrawlstars.scinbox.qq.com/esport/","https://testbrawlstars.scinbox.qq.com/esport/","https://brawlstars.scescdn.com/zh_CN","https://bsescdn.supercellsupport.cn/zh_CN","https://brawlstars-dev.scescdn.com/zh_CN","https://bsescdn-dev.supercellsupport.cn/zh_CN",,"https://supercell.helpshift.com/a/brawl-stars/?p=ios&l=zh","https://supercellcn.hsftcn.cn/a/brawl-stars-china/?p=ios&l=zh","https://supercell.helpshift.com/a/brawl-stars/?p=android&l=zh","https://supercellcn.hsftcn.cn/a/brawl-stars-china/?p=android&l=zh","https://help.supercellsupport.com/brawl-stars/zh_cn/articles/contact-form.html?contact=1","https://help.supercellsupport.cn/brawl-stars/zh_cn/articles/contact-form.html?contact=1","https://help.supercellsupport.com/brawl-stars/zh_cn/articles/contact-form.html?contact=1","https://help.supercellsupport.cn/brawl-stars/zh_cn/articles/contact-form.html?contact=1",,,,,"FALSE","FALSE","https://ingame.help.supercellsupport.com/brawl-stars/zh_cn/index.html","https://game-assets.tencent-cloud.com/self-help/brawl-stars/zh_cn/index.html",,,"http://game.qq.com/contract.shtml","https://game.qq.com/privacy_guide_children.shtml","http://game.qq.com/privacy_guide.shtml","http://game.qq.com/contract.shtml","https://game.qq.com/privacy_guide_children.shtml","http://game.qq.com/privacy_guide.shtml","https://m.youzu.com/about/services.html?noheader=100&cid=m_bs_service",,"https://m.youzu.com/about/privacy.html?noheader=100&cid=m_bs_privacy","https://game-assets.tencent-cloud.com/self-help/brawl-stars/zh_cn/account/index.html"
"AR","sc/ui.sc","flag_gb","العربية",18,"true","false","localization/ar.csv",,,,,"ar",,,,"http://www.supr.cl/bsc","https://www.bsesports.cn/bscrule.html","http://supercell.com/en/terms-of-service/ar/","http://www.supercell.com/en/parents/ar/","http://www.supercell.com/en/privacy-policy/ar/","https://inbox.brawlstars.com/",,"https://staging.inbox.brawlstars.com/ar/",,"https://inbox.brawlstars.com/ar/community/",,"https://staging.inbox.brawlstars.com/ar/community/",,"https://inbox.brawlstars.com/esport/",,"https://staging.inbox.brawlstars.com/esport/",,"https://brawlstars.scescdn.com/en",,"https://brawlstars-dev.scescdn.com/en",,"ar","https://supercell.helpshift.com/a/brawl-stars/?p=ios&l=ar","https://supercellcn.hsftcn.cn/a/brawl-stars-china/?p=ios&l=zh","https://supercell.helpshift.com/a/brawl-stars/?p=android&l=ar","https://supercellcn.hsftcn.cn/a/brawl-stars-china/?p=android&l=zh","https://help.supercellsupport.com/brawl-stars/ar/articles/contact-form.html?contact=1","https://help.supercellsupport.cn/brawl-stars/zh_cn/articles/contact-form.html?contact=1","https://help.supercellsupport.com/brawl-stars/ar/articles/contact-form.html?contact=1","https://help.supercellsupport.cn/brawl-stars/zh_cn/articles/contact-form.html?contact=1",,"TRUE",,,"TRUE","TRUE","https://ingame.help.supercellsupport.com/brawl-stars/ar/index.html",,,"TRUE",,,,,,,,,,
"FR","sc/ui.sc","flag_gb","Français",1,"true","false","localization/fr.csv",,,,,"fr",,,,"http://www.supr.cl/bsc","https://www.bsesports.cn/bscrule.html","http://supercell.com/en/terms-of-service/fr","http://www.supercell.com/en/parents/","http://www.supercell.com/en/privacy-policy/fr","https://inbox.brawlstars.com/fr/",,"https://staging.inbox.brawlstars.com/fr/",,"https://inbox.brawlstars.com/fr/community/",,"https://staging.inbox.brawlstars.com/fr/community/",,"https://inbox.brawlstars.com/fr/esport/",,"https://staging.inbox.brawlstars.com/fr/esport/",,"https://brawlstars.scescdn.com/fr",,"https://brawlstars-dev.scescdn.com/fr",,"fr","https://supercell.helpshift.com/a/brawl-stars/?p=ios&l=fr","https://supercellcn.hsftcn.cn/a/brawl-stars-china/?p=ios&l=zh","https://supercell.helpshift.com/a/brawl-stars/?p=android&l=fr","https://supercellcn.hsftcn.cn/a/brawl-stars-china/?p=android&l=zh","https://help.supercellsupport.com/brawl-stars/fr/articles/contact-form.html?contact=1","https://help.supercellsupport.cn/brawl-stars/zh_cn/articles/contact-form.html?contact=1","https://help.supercellsupport.com/brawl-stars/fr/articles/contact-form.html?contact=1","https://help.supercellsupport.cn/brawl-stars/zh_cn/articles/contact-form.html?contact=1",,,"TRUE","TRUE","TRUE","TRUE","https://ingame.help.supercellsupport.com/brawl-stars/fr/index.html",,,"TRUE",,,,,,,,,,
"DOUBLE","sc/ui.sc","flag_gb","Double",101,"false","false","localization/texts.csv","TRUE",,,,"en",,,,"http://www.supr.cl/bsc","https://www.bsesports.cn/bscrule.html","http://supercell.com/en/terms-of-service/","http://www.supercell.com/en/parents/","http://www.supercell.com/en/privacy-policy/","https://inbox.brawlstars.com/",,"https://staging.inbox.brawlstars.com/",,"https://inbox.brawlstars.com/community/",,"https://staging.inbox.brawlstars.com/community/",,"https://inbox.brawlstars.com/esport/",,"https://staging.inbox.brawlstars.com/esport/",,"https://brawlstars.scescdn.com/en",,"https://brawlstars-dev.scescdn.com/en",,,"https://supercell.helpshift.com/a/brawl-stars/?p=ios&l=en","https://supercellcn.hsftcn.cn/a/brawl-stars-china/?p=ios&l=zh","https://supercell.helpshift.com/a/brawl-stars/?p=android&l=en","https://supercellcn.hsftcn.cn/a/brawl-stars-china/?p=android&l=zh","https://help.supercellsupport.com/brawl-stars/en/articles/contact-form.html?contact=1","https://help.supercellsupport.cn/brawl-stars/zh_cn/articles/contact-form.html?contact=1","https://help.supercellsupport.com/brawl-stars/en/articles/contact-form.html?contact=1","https://help.supercellsupport.cn/brawl-stars/zh_cn/articles/contact-form.html?contact=1",,,,,"TRUE","TRUE","https://ingame.help.supercellsupport.com/brawl-stars/en/index.html",,,"TRUE",,,,,,,,,,
"EMPTY","sc/ui.sc","flag_gb","Empty",102,"false","false","localization/texts.csv","TRUE",,,,"en",,,,"http://www.supr.cl/bsc","https://www.bsesports.cn/bscrule.html","http://supercell.com/en/terms-of-service/","http://www.supercell.com/en/parents/","http://www.supercell.com/en/privacy-policy/","https://inbox.brawlstars.com/",,"https://staging.inbox.brawlstars.com/",,"https://inbox.brawlstars.com/community/",,"https://staging.inbox.brawlstars.com/community/",,"https://inbox.brawlstars.com/esport/",,"https://staging.inbox.brawlstars.com/esport/",,"https://brawlstars.scescdn.com/en",,"https://brawlstars-dev.scescdn.com/en",,,"https://supercell.helpshift.com/a/brawl-stars/?p=ios&l=en","https://supercellcn.hsftcn.cn/a/brawl-stars-china/?p=ios&l=zh","https://supercell.helpshift.com/a/brawl-stars/?p=android&l=en","https://supercellcn.hsftcn.cn/a/brawl-stars-china/?p=android&l=zh","https://help.supercellsupport.com/brawl-stars/en/articles/contact-form.html?contact=1","https://help.supercellsupport.cn/brawl-stars/zh_cn/articles/contact-form.html?contact=1","https://help.supercellsupport.com/brawl-stars/en/articles/contact-form.html?contact=1","https://help.supercellsupport.cn/brawl-stars/zh_cn/articles/contact-form.html?contact=1",,,,,"TRUE","TRUE","https://ingame.help.supercellsupport.com/brawl-stars/en/index.html",,,"TRUE",,,,,,,,,,
"DOUBLEDOUBLE","sc/ui.sc","flag_gb","DoubleDouble",103,"false","false","localization/texts.csv","TRUE",,,,"en",,,,"http://www.supr.cl/bsc","https://www.bsesports.cn/bscrule.html","http://supercell.com/en/terms-of-service/","http://www.supercell.com/en/parents/","http://www.supercell.com/en/privacy-policy/","https://inbox.brawlstars.com/",,"https://staging.inbox.brawlstars.com/",,"https://inbox.brawlstars.com/community/",,"https://staging.inbox.brawlstars.com/community/",,"https://inbox.brawlstars.com/esport/",,"https://staging.inbox.brawlstars.com/esport/",,"https://brawlstars.scescdn.com/en",,"https://brawlstars-dev.scescdn.com/en",,,"https://supercell.helpshift.com/a/brawl-stars/?p=ios&l=en","https://supercellcn.hsftcn.cn/a/brawl-stars-china/?p=ios&l=zh","https://supercell.helpshift.com/a/brawl-stars/?p=android&l=en","https://supercellcn.hsftcn.cn/a/brawl-stars-china/?p=android&l=zh","https://help.supercellsupport.com/brawl-stars/en/articles/contact-form.html?contact=1","https://help.supercellsupport.cn/brawl-stars/zh_cn/articles/contact-form.html?contact=1","https://help.supercellsupport.com/brawl-stars/en/articles/contact-form.html?contact=1","https://help.supercellsupport.cn/brawl-stars/zh_cn/articles/contact-form.html?contact=1",,,,,"TRUE","TRUE","https://ingame.help.supercellsupport.com/brawl-stars/en/index.html",,,"TRUE",,,,,,,,,,
"TEXT","sc/ui.sc","flag_gb","Longest text",104,"false","false","localization/texts.csv","TRUE",,,,"en",,"CN","TRUE","http://www.supr.cl/bsc","https://www.bsesports.cn/bscrule.html","http://supercell.com/en/terms-of-service/","http://www.supercell.com/en/parents/","http://www.supercell.com/en/privacy-policy/","https://inbox.brawlstars.com/",,"https://staging.inbox.brawlstars.com/",,"https://inbox.brawlstars.com/community/",,"https://staging.inbox.brawlstars.com/community/",,"https://inbox.brawlstars.com/esport/",,"https://staging.inbox.brawlstars.com/esport/",,"https://brawlstars.scescdn.com/en",,"https://brawlstars-dev.scescdn.com/en",,,"https://supercell.helpshift.com/a/brawl-stars/?p=ios&l=en","https://supercellcn.hsftcn.cn/a/brawl-stars-china/?p=ios&l=zh","https://supercell.helpshift.com/a/brawl-stars/?p=android&l=en","https://supercellcn.hsftcn.cn/a/brawl-stars-china/?p=android&l=zh","https://help.supercellsupport.com/brawl-stars/en/articles/contact-form.html?contact=1","https://help.supercellsupport.cn/brawl-stars/zh_cn/articles/contact-form.html?contact=1","https://help.supercellsupport.com/brawl-stars/en/articles/contact-form.html?contact=1","https://help.supercellsupport.cn/brawl-stars/zh_cn/articles/contact-form.html?contact=1",,,,,"TRUE","TRUE","https://ingame.help.supercellsupport.com/brawl-stars/en/index.html",,,"TRUE",,,,,,,,,,
,,,,,,,,,,,,,,"CNT",,,,,,,,,,,,,,,,,,,,,,,,,,,,,,,,,,,,,,,,,,,,,,,,,,,
,,,,,,,,,,,,,,"KR",,,,,,,,,,,,,,,,,,,,,,,,,,,,,,,,,,,,,,,,,,,,,,,,,,,
,,,,,,,,,,,,,,"AR",,,,,,,,,,,,,,,,,,,,,,,,,,,,,,,,,,,,,,,,,,,,,,,,,,,
,,,,,,,,,,,,,,"JP",,,,,,,,,,,,,,,,,,,,,,,,,,,,,,,,,,,,,,,,,,,,,,,,,,,
,,,,,,,,,,,,,,"TH",,,,,,,,,,,,,,,,,,,,,,,,,,,,,,,,,,,,,,,,,,,,,,,,,,,
"WORD","sc/ui.sc","flag_gb","Longest Word",105,"false","false","localization/texts.csv","TRUE",,,,"en",,"CN","TRUE","http://www.supr.cl/bsc","https://www.bsesports.cn/bscrule.html","http://supercell.com/en/terms-of-service/","http://www.supercell.com/en/parents/","http://www.supercell.com/en/privacy-policy/","https://inbox.brawlstars.com/",,"https://staging.inbox.brawlstars.com/",,"https://inbox.brawlstars.com/community/",,"https://staging.inbox.brawlstars.com/community/",,"https://inbox.brawlstars.com/esport/",,"https://staging.inbox.brawlstars.com/esport/",,"https://brawlstars.scescdn.com",,"https://brawlstars-dev.scescdn.com/en",,,"https://supercell.helpshift.com/a/brawl-stars/?p=ios&l=en","https://supercellcn.hsftcn.cn/a/brawl-stars-china/?p=ios&l=zh","https://supercell.helpshift.com/a/brawl-stars/?p=android&l=en","https://supercellcn.hsftcn.cn/a/brawl-stars-china/?p=android&l=zh","https://help.supercellsupport.com/brawl-stars/en/articles/contact-form.html?contact=1","https://help.supercellsupport.cn/brawl-stars/zh_cn/articles/contact-form.html?contact=1","https://help.supercellsupport.com/brawl-stars/en/articles/contact-form.html?contact=1","https://help.supercellsupport.cn/brawl-stars/zh_cn/articles/contact-form.html?contact=1",,,,,"TRUE","TRUE","https://ingame.help.supercellsupport.com/brawl-stars/en/index.html",,,"TRUE",,,,,,,,,,
,,,,,,,,,,,,,,"CNT",,,,,,,,,,,,,,,,,,,,,,,,,,,,,,,,,,,,,,,,,,,,,,,,,,,
,,,,,,,,,,,,,,"KR",,,,,,,,,,,,,,,,,,,,,,,,,,,,,,,,,,,,,,,,,,,,,,,,,,,
,,,,,,,,,,,,,,"AR",,,,,,,,,,,,,,,,,,,,,,,,,,,,,,,,,,,,,,,,,,,,,,,,,,,
,,,,,,,,,,,,,,"JP",,,,,,,,,,,,,,,,,,,,,,,,,,,,,,,,,,,,,,,,,,,,,,,,,,,
,,,,,,,,,,,,,,"TH",,,,,,,,,,,,,,,,,,,,,,,,,,,,,,,,,,,,,,,,,,,,,,,,,,,
"DE","sc/ui.sc","flag_gb","Deutsch",2,"true","false","localization/de.csv",,,,,"de",,,,"http://www.supr.cl/bsc","https://www.bsesports.cn/bscrule.html","http://supercell.com/en/terms-of-service/de","http://www.supercell.com/en/parents/","http://www.supercell.com/en/privacy-policy/de","https://inbox.brawlstars.com/de/",,"https://staging.inbox.brawlstars.com/de/",,"https://inbox.brawlstars.com/de/community/",,"https://staging.inbox.brawlstars.com/de/community/",,"https://inbox.brawlstars.com/de/esport/",,"https://staging.inbox.brawlstars.com/de/esport/",,"https://brawlstars.scescdn.com/de",,"https://brawlstars-dev.scescdn.com/de",,"de","https://supercell.helpshift.com/a/brawl-stars/?p=ios&l=de","https://supercellcn.hsftcn.cn/a/brawl-stars-china/?p=ios&l=zh","https://supercell.helpshift.com/a/brawl-stars/?p=android&l=de","https://supercellcn.hsftcn.cn/a/brawl-stars-china/?p=android&l=zh","https://help.supercellsupport.com/brawl-stars/de/articles/contact-form.html?contact=1","https://help.supercellsupport.cn/brawl-stars/zh_cn/articles/contact-form.html?contact=1","https://help.supercellsupport.com/brawl-stars/de/articles/contact-form.html?contact=1","https://help.supercellsupport.cn/brawl-stars/zh_cn/articles/contact-form.html?contact=1",,,,"TRUE","TRUE","TRUE","https://ingame.help.supercellsupport.com/brawl-stars/de/index.html",,,"TRUE",,,,,,,,,,
"ES","sc/ui.sc","flag_gb","Español",3,"true","false","localization/es.csv",,,,,"es",,,,"http://www.supr.cl/bsc","https://www.bsesports.cn/bscrule.html","http://supercell.com/en/terms-of-service/es","http://www.supercell.com/en/parents/","http://www.supercell.com/en/privacy-policy/es","https://inbox.brawlstars.com/es/",,"https://staging.inbox.brawlstars.com/es/",,"https://inbox.brawlstars.com/es/community/",,"https://staging.inbox.brawlstars.com/es/community/",,"https://inbox.brawlstars.com/es/esport/",,"https://staging.inbox.brawlstars.com/es/esport/",,"https://brawlstars.scescdn.com/es",,"https://brawlstars-dev.scescdn.com/es",,"es","https://supercell.helpshift.com/a/brawl-stars/?p=ios&l=es","https://supercellcn.hsftcn.cn/a/brawl-stars-china/?p=ios&l=zh","https://supercell.helpshift.com/a/brawl-stars/?p=android&l=es","https://supercellcn.hsftcn.cn/a/brawl-stars-china/?p=android&l=zh","https://help.supercellsupport.com/brawl-stars/es/articles/contact-form.html?contact=1","https://help.supercellsupport.cn/brawl-stars/zh_cn/articles/contact-form.html?contact=1","https://help.supercellsupport.com/brawl-stars/es/articles/contact-form.html?contact=1","https://help.supercellsupport.cn/brawl-stars/zh_cn/articles/contact-form.html?contact=1",,,,,"TRUE","TRUE","https://ingame.help.supercellsupport.com/brawl-stars/es/index.html",,,"TRUE",,,,,,,,,,
"IT","sc/ui.sc","flag_gb","Italiano",4,"true","false","localization/it.csv",,,,,"it",,,,"http://www.supr.cl/bsc","https://www.bsesports.cn/bscrule.html","http://supercell.com/en/terms-of-service/it","http://www.supercell.com/en/parents/","http://www.supercell.com/en/privacy-policy/it","https://inbox.brawlstars.com/it/",,"https://staging.inbox.brawlstars.com/it/",,"https://inbox.brawlstars.com/it/community/",,"https://staging.inbox.brawlstars.com/it/community/",,"https://inbox.brawlstars.com/it/esport/",,"https://staging.inbox.brawlstars.com/it/esport/",,"https://brawlstars.scescdn.com/it",,"https://brawlstars-dev.scescdn.com/it",,"it","https://supercell.helpshift.com/a/brawl-stars/?p=ios&l=it","https://supercellcn.hsftcn.cn/a/brawl-stars-china/?p=ios&l=zh","https://supercell.helpshift.com/a/brawl-stars/?p=android&l=it","https://supercellcn.hsftcn.cn/a/brawl-stars-china/?p=android&l=zh","https://help.supercellsupport.com/brawl-stars/it/articles/contact-form.html?contact=1","https://help.supercellsupport.cn/brawl-stars/zh_cn/articles/contact-form.html?contact=1","https://help.supercellsupport.com/brawl-stars/it/articles/contact-form.html?contact=1","https://help.supercellsupport.cn/brawl-stars/zh_cn/articles/contact-form.html?contact=1",,,,,"TRUE","TRUE","https://ingame.help.supercellsupport.com/brawl-stars/it/index.html",,,"TRUE",,,,,,,,,,
"JP","sc/ui.sc","flag_gb","日本語",7,"true","false","localization/jp.csv",,"HiraKakuProN-W6",,,"ja",,,,"http://www.supr.cl/bsc","https://www.bsesports.cn/bscrule.html","http://supercell.com/en/terms-of-service/jp","http://www.supercell.com/en/parents/jp","http://www.supercell.com/en/privacy-policy/jp","https://inbox.brawlstars.com/ja/",,"https://staging.inbox.brawlstars.com/ja/",,"https://inbox.brawlstars.com/ja/community/",,"https://staging.inbox.brawlstars.com/ja/community/",,"https://inbox.brawlstars.com/ja/esport/",,"https://staging.inbox.brawlstars.com/ja/esport/",,"https://brawlstars.scescdn.com/jp",,"https://brawlstars-dev.scescdn.com/jp",,"ja","https://supercell.helpshift.com/a/brawl-stars/?p=ios&l=ja","https://supercellcn.hsftcn.cn/a/brawl-stars-china/?p=ios&l=zh","https://supercell.helpshift.com/a/brawl-stars/?p=android&l=ja","https://supercellcn.hsftcn.cn/a/brawl-stars-china/?p=android&l=zh","https://help.supercellsupport.com/brawl-stars/ja/articles/contact-form.html?contact=1","https://help.supercellsupport.cn/brawl-stars/zh_cn/articles/contact-form.html?contact=1","https://help.supercellsupport.com/brawl-stars/ja/articles/contact-form.html?contact=1","https://help.supercellsupport.cn/brawl-stars/zh_cn/articles/contact-form.html?contact=1",,,,,"TRUE","FALSE","https://ingame.help.supercellsupport.com/brawl-stars/ja/index.html",,,"TRUE",,,,,,,,,,
"CNT","sc/ui.sc","flag_gb","繁體中文",6,"true","false","localization/cnt.csv",,"STHeitiSC-Medium",,,"zh-Hant","zh_TW",,,"http://www.supr.cl/bsc","https://www.bsesports.cn/bscrule.html","http://supercell.com/en/terms-of-service/tw","http://www.supercell.com/en/parents/tw","http://www.supercell.com/en/privacy-policy/tw","https://inbox.brawlstars.com/zh/",,"https://staging.inbox.brawlstars.com/zh/",,,,,,"https://inbox.brawlstars.com/zh/esport/",,"https://staging.inbox.brawlstars.com/zh/esport/",,"https://brawlstars.scescdn.com/zh_TW",,"https://brawlstars-dev.scescdn.com/zh_TW",,"zh","https://supercell.helpshift.com/a/brawl-stars/?p=ios&l=zh-hant","https://supercellcn.hsftcn.cn/a/brawl-stars-china/?p=ios&l=zh","https://supercell.helpshift.com/a/brawl-stars/?p=android&l=zh-hant","https://supercellcn.hsftcn.cn/a/brawl-stars-china/?p=android&l=zh","https://help.supercellsupport.com/brawl-stars/zh/articles/contact-form.html?contact=1","https://help.supercellsupport.cn/brawl-stars/zh_cn/articles/contact-form.html?contact=1","https://help.supercellsupport.com/brawl-stars/zh/articles/contact-form.html?contact=1","https://help.supercellsupport.cn/brawl-stars/zh_cn/articles/contact-form.html?contact=1",,,,,"FALSE","FALSE","https://ingame.help.supercellsupport.com/brawl-stars/zh/index.html",,,"TRUE",,,,,,,,,,
"KR","sc/ui.sc","flag_gb","한국어",8,"true","false","localization/kr.csv",,,,,"ko",,,,"http://www.supr.cl/bsc","https://www.bsesports.cn/bscrule.html","http://supercell.com/en/terms-of-service/ko","http://www.supercell.com/en/parents/ko","http://www.supercell.com/en/privacy-policy/ko","https://inbox.brawlstars.com/ko/",,"https://staging.inbox.brawlstars.com/ko/",,"https://inbox.brawlstars.com/ko/community/",,"https://staging.inbox.brawlstars.com/ko/community/",,"https://inbox.brawlstars.com/ko/esport/",,"https://staging.inbox.brawlstars.com/ko/esport/",,"https://brawlstars.scescdn.com/ko",,"https://brawlstars-dev.scescdn.com/ko",,"ko","https://supercell.helpshift.com/a/brawl-stars/?p=ios&l=ko","https://supercellcn.hsftcn.cn/a/brawl-stars-china/?p=ios&l=zh","https://supercell.helpshift.com/a/brawl-stars/?p=android&l=ko","https://supercellcn.hsftcn.cn/a/brawl-stars-china/?p=android&l=zh","https://help.supercellsupport.com/brawl-stars/ko/articles/contact-form.html?contact=1","https://help.supercellsupport.cn/brawl-stars/zh_cn/articles/contact-form.html?contact=1","https://help.supercellsupport.com/brawl-stars/ko/articles/contact-form.html?contact=1","https://help.supercellsupport.cn/brawl-stars/zh_cn/articles/contact-form.html?contact=1",,,,,"TRUE","TRUE","https://ingame.help.supercellsupport.com/brawl-stars/ko/index.html",,,"TRUE",,,,,,,,,,
"NL","sc/ui.sc","flag_gb","Nederlands",11,"true","false","localization/nl.csv",,,,,"nl",,,,"http://www.supr.cl/bsc","https://www.bsesports.cn/bscrule.html","http://supercell.com/en/terms-of-service/","http://www.supercell.com/en/parents/","http://www.supercell.com/en/privacy-policy/","https://inbox.brawlstars.com/",,"https://staging.inbox.brawlstars.com/nl/",,"https://inbox.brawlstars.com/nl/community/",,"https://staging.inbox.brawlstars.com/nl/community/",,"https://inbox.brawlstars.com/esport/",,"https://staging.inbox.brawlstars.com/esport/",,"https://brawlstars.scescdn.com/en",,"https://brawlstars-dev.scescdn.com/en",,"nl","https://supercell.helpshift.com/a/brawl-stars/?p=ios&l=nl","https://supercellcn.hsftcn.cn/a/brawl-stars-china/?p=ios&l=zh","https://supercell.helpshift.com/a/brawl-stars/?p=android&l=nl","https://supercellcn.hsftcn.cn/a/brawl-stars-china/?p=android&l=zh","https://help.supercellsupport.com/brawl-stars/nl/articles/contact-form.html?contact=1","https://help.supercellsupport.cn/brawl-stars/zh_cn/articles/contact-form.html?contact=1","https://help.supercellsupport.com/brawl-stars/nl/articles/contact-form.html?contact=1","https://help.supercellsupport.cn/brawl-stars/zh_cn/articles/contact-form.html?contact=1",,,,,"TRUE","TRUE","https://ingame.help.supercellsupport.com/brawl-stars/nl/index.html",,,"TRUE",,,,,,,,,,
"PT","sc/ui.sc","flag_gb","Português",9,"true","false","localization/pt.csv",,,,,"pt","pt_Br",,,"http://www.supr.cl/bsc","https://www.bsesports.cn/bscrule.html","http://supercell.com/en/terms-of-service/pt","http://www.supercell.com/en/parents/","http://www.supercell.com/en/privacy-policy/pt","https://inbox.brawlstars.com/pt/",,"https://staging.inbox.brawlstars.com/pt/",,"https://inbox.brawlstars.com/pt/community/",,"https://staging.inbox.brawlstars.com/pt/community/",,"https://inbox.brawlstars.com/pt/esport/",,"https://staging.inbox.brawlstars.com/pt/esport/",,"https://brawlstars.scescdn.com/pt",,"https://brawlstars-dev.scescdn.com/pt",,"pt","https://supercell.helpshift.com/a/brawl-stars/?p=ios&l=pt","https://supercellcn.hsftcn.cn/a/brawl-stars-china/?p=ios&l=zh","https://supercell.helpshift.com/a/brawl-stars/?p=android&l=pt","https://supercellcn.hsftcn.cn/a/brawl-stars-china/?p=android&l=zh","https://help.supercellsupport.com/brawl-stars/pt/articles/contact-form.html?contact=1","https://help.supercellsupport.cn/brawl-stars/zh_cn/articles/contact-form.html?contact=1","https://help.supercellsupport.com/brawl-stars/pt/articles/contact-form.html?contact=1","https://help.supercellsupport.cn/brawl-stars/zh_cn/articles/contact-form.html?contact=1",,,,,"TRUE","TRUE","https://ingame.help.supercellsupport.com/brawl-stars/pt/index.html",,,"TRUE",,,,,,,,,,
"RU","sc/ui.sc","flag_gb","Pусский",10,"true","false","localization/ru.csv",,,,,"ru",,,,"http://www.supr.cl/bsc","https://www.bsesports.cn/bscrule.html","http://supercell.com/en/terms-of-service/ru","http://www.supercell.com/en/parents/","http://www.supercell.com/en/privacy-policy/ru","https://inbox.brawlstars.com/ru/",,"https://staging.inbox.brawlstars.com/ru/",,"https://inbox.brawlstars.com/ru/community/",,"https://staging.inbox.brawlstars.com/ru/community/",,"https://inbox.brawlstars.com/ru/esport/",,"https://staging.inbox.brawlstars.com/ru/esport/",,"https://brawlstars.scescdn.com/ru",,"https://brawlstars-dev.scescdn.com/ru",,"ru","https://supercell.helpshift.com/a/brawl-stars/?p=ios&l=ru","https://supercellcn.hsftcn.cn/a/brawl-stars-china/?p=ios&l=zh","https://supercell.helpshift.com/a/brawl-stars/?p=android&l=ru","https://supercellcn.hsftcn.cn/a/brawl-stars-china/?p=android&l=zh","https://help.supercellsupport.com/brawl-stars/ru/articles/contact-form.html?contact=1","https://help.supercellsupport.cn/brawl-stars/zh_cn/articles/contact-form.html?contact=1","https://help.supercellsupport.com/brawl-stars/ru/articles/contact-form.html?contact=1","https://help.supercellsupport.cn/brawl-stars/zh_cn/articles/contact-form.html?contact=1",,,,"TRUE","TRUE","TRUE","https://ingame.help.supercellsupport.com/brawl-stars/ru/index.html",,,"TRUE",,,,,,,,,,
"TR","sc/ui.sc","flag_gb","Türkçe",12,"true","false","localization/tr.csv",,,,,"tr",,,,"http://www.supr.cl/bsc","https://www.bsesports.cn/bscrule.html","http://supercell.com/en/terms-of-service/tr","http://www.supercell.com/en/parents/","http://www.supercell.com/en/privacy-policy/tr","https://inbox.brawlstars.com/tr/",,"https://staging.inbox.brawlstars.com/tr/",,"https://inbox.brawlstars.com/tr/community/",,"https://staging.inbox.brawlstars.com/tr/community/",,"https://inbox.brawlstars.com/tr/esport/",,"https://staging.inbox.brawlstars.com/tr/esport/",,"https://brawlstars.scescdn.com/tr",,"https://brawlstars-dev.scescdn.com/tr",,"tr","https://supercell.helpshift.com/a/brawl-stars/?p=ios&l=tr","https://supercellcn.hsftcn.cn/a/brawl-stars-china/?p=ios&l=zh","https://supercell.helpshift.com/a/brawl-stars/?p=android&l=tr","https://supercellcn.hsftcn.cn/a/brawl-stars-china/?p=android&l=zh","https://help.supercellsupport.com/brawl-stars/tr/articles/contact-form.html?contact=1","https://help.supercellsupport.cn/brawl-stars/zh_cn/articles/contact-form.html?contact=1","https://help.supercellsupport.com/brawl-stars/tr/articles/contact-form.html?contact=1","https://help.supercellsupport.cn/brawl-stars/zh_cn/articles/contact-form.html?contact=1",,,,,"TRUE","TRUE","https://ingame.help.supercellsupport.com/brawl-stars/tr/index.html",,,"TRUE",,,,,,,,,,
"ID","sc/ui.sc","flag_gb","Bahasa Indonesia",17,"true","false","localization/id.csv",,,,,"id",,,,"http://www.supr.cl/bsc","https://www.bsesports.cn/bscrule.html","http://supercell.com/en/terms-of-service/","http://www.supercell.com/en/parents/id","http://www.supercell.com/en/privacy-policy/","https://inbox.brawlstars.com/id/",,"https://staging.inbox.brawlstars.com/id/",,"https://inbox.brawlstars.com/id/community/",,"https://staging.inbox.brawlstars.com/id/community/",,"https://inbox.brawlstars.com/esport/",,"https://staging.inbox.brawlstars.com/esport/",,"https://brawlstars.scescdn.com/en",,"https://brawlstars-dev.scescdn.com/en",,"id","https://supercell.helpshift.com/a/brawl-stars/?p=ios&l=id","https://supercellcn.hsftcn.cn/a/brawl-stars-china/?p=ios&l=zh","https://supercell.helpshift.com/a/brawl-stars/?p=android&l=id","https://supercellcn.hsftcn.cn/a/brawl-stars-china/?p=android&l=zh","https://help.supercellsupport.com/brawl-stars/id/articles/contact-form.html?contact=1","https://help.supercellsupport.cn/brawl-stars/zh_cn/articles/contact-form.html?contact=1","https://help.supercellsupport.com/brawl-stars/id/articles/contact-form.html?contact=1","https://help.supercellsupport.cn/brawl-stars/zh_cn/articles/contact-form.html?contact=1",,,,,"TRUE","TRUE","https://ingame.help.supercellsupport.com/brawl-stars/id/index.html",,,"TRUE",,,,,,,,,,
"MS","sc/ui.sc","flag_gb","Bahasa Melayu",14,"true","false","localization/ms.csv",,,,,"ms",,,,"http://www.supr.cl/bsc","https://www.bsesports.cn/bscrule.html","http://supercell.com/en/terms-of-service/","http://www.supercell.com/en/parents/ms","http://www.supercell.com/en/privacy-policy/","https://inbox.brawlstars.com/",,"https://staging.inbox.brawlstars.com/ms/",,"https://inbox.brawlstars.com/ms/community/",,"https://staging.inbox.brawlstars.com/ms/community/",,"https://inbox.brawlstars.com/esport/",,"https://staging.inbox.brawlstars.com/esport/",,"https://brawlstars.scescdn.com/en",,"https://brawlstars-dev.scescdn.com/en",,"ms","https://supercell.helpshift.com/a/brawl-stars/?p=ios&l=ms","https://supercellcn.hsftcn.cn/a/brawl-stars-china/?p=ios&l=zh","https://supercell.helpshift.com/a/brawl-stars/?p=android&l=ms","https://supercellcn.hsftcn.cn/a/brawl-stars-china/?p=android&l=zh","https://help.supercellsupport.com/brawl-stars/en/articles/contact-form.html?contact=1","https://help.supercellsupport.cn/brawl-stars/zh_cn/articles/contact-form.html?contact=1","https://help.supercellsupport.com/brawl-stars/en/articles/contact-form.html?contact=1","https://help.supercellsupport.cn/brawl-stars/zh_cn/articles/contact-form.html?contact=1",,,,,"TRUE","TRUE","https://ingame.help.supercellsupport.com/brawl-stars/ms/index.html",,,"TRUE",,,,,,,,,,
"VI","sc/ui.sc","flag_gb","Tiếng Việt",15,"true","false","localization/vi.csv",,,,,"vi",,,,"http://www.supr.cl/bsc","https://www.bsesports.cn/bscrule.html","http://supercell.com/en/terms-of-service/","http://www.supercell.com/en/parents/","http://www.supercell.com/en/privacy-policy/","https://inbox.brawlstars.com/",,"https://staging.inbox.brawlstars.com/vi/",,"https://inbox.brawlstars.com/vi/community/",,"https://staging.inbox.brawlstars.com/vi/community/",,"https://inbox.brawlstars.com/esport/",,"https://staging.inbox.brawlstars.com/esport/",,"https://brawlstars.scescdn.com/en",,"https://brawlstars-dev.scescdn.com/en",,"vi","https://supercell.helpshift.com/a/brawl-stars/?p=ios&l=vi","https://supercellcn.hsftcn.cn/a/brawl-stars-china/?p=ios&l=zh","https://supercell.helpshift.com/a/brawl-stars/?p=android&l=vi","https://supercellcn.hsftcn.cn/a/brawl-stars-china/?p=android&l=zh","https://help.supercellsupport.com/brawl-stars/en/articles/contact-form.html?contact=1","https://help.supercellsupport.cn/brawl-stars/zh_cn/articles/contact-form.html?contact=1","https://help.supercellsupport.com/brawl-stars/en/articles/contact-form.html?contact=1","https://help.supercellsupport.cn/brawl-stars/zh_cn/articles/contact-form.html?contact=1",,,,,"TRUE","TRUE","https://ingame.help.supercellsupport.com/brawl-stars/en/index.html",,,"TRUE",,,,,,,,,,
"TH","sc/ui.sc","flag_gb","ภาษาไทย",16,"true","false","localization/th.csv",,"HelveticaNeue-Bold",,,"th",,,,"http://www.supr.cl/bsc","https://www.bsesports.cn/bscrule.html","http://supercell.com/en/terms-of-service/","http://www.supercell.com/en/parents/","http://www.supercell.com/en/privacy-policy/","https://inbox.brawlstars.com/",,"https://staging.inbox.brawlstars.com/th/",,"https://inbox.brawlstars.com/th/community/",,"https://staging.inbox.brawlstars.com/th/community/",,"https://inbox.brawlstars.com/esport/",,"https://staging.inbox.brawlstars.com/esport/",,"https://brawlstars.scescdn.com/en",,"https://brawlstars-dev.scescdn.com/en",,"th","https://supercell.helpshift.com/a/brawl-stars/?p=ios&l=th","https://supercellcn.hsftcn.cn/a/brawl-stars-china/?p=ios&l=zh","https://supercell.helpshift.com/a/brawl-stars/?p=android&l=th","https://supercellcn.hsftcn.cn/a/brawl-stars-china/?p=android&l=zh","https://help.supercellsupport.com/brawl-stars/en/articles/contact-form.html?contact=1","https://help.supercellsupport.cn/brawl-stars/zh_cn/articles/contact-form.html?contact=1","https://help.supercellsupport.com/brawl-stars/en/articles/contact-form.html?contact=1","https://help.supercellsupport.cn/brawl-stars/zh_cn/articles/contact-form.html?contact=1",,,,,"TRUE","FALSE","https://ingame.help.supercellsupport.com/brawl-stars/en/index.html",,,"TRUE",,,,,,,,,,
"FI","sc/ui.sc","flag_gb","Suomi",13,"true","false","localization/fi.csv",,,,,"fi",,,,"http://www.supr.cl/bsc","https://www.bsesports.cn/bscrule.html","http://supercell.com/en/terms-of-service/fi/","http://supercell.com/en/parents/fi/","http://supercell.com/en/privacy-policy/fi/","https://inbox.brawlstars.com/",,"https://staging.inbox.brawlstars.com/fi/",,"https://inbox.brawlstars.com/fi/community/",,"https://staging.inbox.brawlstars.com/fi/community/",,"https://inbox.brawlstars.com/esport/",,"https://staging.inbox.brawlstars.com/esport/",,"https://brawlstars.scescdn.com/en",,"https://brawlstars-dev.scescdn.com/en",,"fi","https://supercell.helpshift.com/a/brawl-stars/?p=ios&l=fi","https://supercellcn.hsftcn.cn/a/brawl-stars-china/?p=ios&l=zh","https://supercell.helpshift.com/a/brawl-stars/?p=android&l=fi","https://supercellcn.hsftcn.cn/a/brawl-stars-china/?p=android&l=zh","https://help.supercellsupport.com/brawl-stars/fi/articles/contact-form.html?contact=1","https://help.supercellsupport.cn/brawl-stars/zh_cn/articles/contact-form.html?contact=1","https://help.supercellsupport.com/brawl-stars/fi/articles/contact-form.html?contact=1","https://help.supercellsupport.cn/brawl-stars/zh_cn/articles/contact-form.html?contact=1",,,,"TRUE","TRUE","TRUE","https://ingame.help.supercellsupport.com/brawl-stars/fi/index.html",,,"TRUE",,,,,,,,,,
"TEXT_ASIA","sc/ui.sc","flag_gb","Longest text Asia",106,"false","false","localization/texts.csv","TRUE",,,,"en",,"EN","TRUE","http://www.supr.cl/bsc","https://www.bsesports.cn/bscrule.html","http://supercell.com/en/terms-of-service/","http://www.supercell.com/en/parents/","http://www.supercell.com/en/privacy-policy/","https://inbox.brawlstars.com/",,"https://staging.inbox.brawlstars.com/",,"https://inbox.brawlstars.com/community/",,"https://staging.inbox.brawlstars.com/community/",,"https://inbox.brawlstars.com/esport/",,"https://staging.inbox.brawlstars.com/esport/",,"https://brawlstars.scescdn.com/en",,"https://brawlstars-dev.scescdn.com/en",,,"https://supercell.helpshift.com/a/brawl-stars/?p=ios&l=en","https://supercellcn.hsftcn.cn/a/brawl-stars-china/?p=ios&l=zh","https://supercell.helpshift.com/a/brawl-stars/?p=android&l=en","https://supercellcn.hsftcn.cn/a/brawl-stars-china/?p=android&l=zh","https://help.supercellsupport.com/brawl-stars/en/articles/contact-form.html?contact=1","https://help.supercellsupport.cn/brawl-stars/zh_cn/articles/contact-form.html?contact=1","https://help.supercellsupport.com/brawl-stars/en/articles/contact-form.html?contact=1","https://help.supercellsupport.cn/brawl-stars/zh_cn/articles/contact-form.html?contact=1",,,,,"TRUE","TRUE","https://ingame.help.supercellsupport.com/brawl-stars/en/index.html",,,"TRUE",,,,,,,,,,
,,,,,,,,,,,,,,"ES",,,,,,,,,,,,,,,,,,,,,,,,,,,,,,,,,,,,,,,,,,,,,,,,,,,
,,,,,,,,,,,,,,"AR",,,,,,,,,,,,,,,,,,,,,,,,,,,,,,,,,,,,,,,,,,,,,,,,,,,
,,,,,,,,,,,,,,"TR",,,,,,,,,,,,,,,,,,,,,,,,,,,,,,,,,,,,,,,,,,,,,,,,,,,
,,,,,,,,,,,,,,"ID",,,,,,,,,,,,,,,,,,,,,,,,,,,,,,,,,,,,,,,,,,,,,,,,,,,
,,,,,,,,,,,,,,"MS",,,,,,,,,,,,,,,,,,,,,,,,,,,,,,,,,,,,,,,,,,,,,,,,,,,
,,,,,,,,,,,,,,"VI",,,,,,,,,,,,,,,,,,,,,,,,,,,,,,,,,,,,,,,,,,,,,,,,,,,
,,,,,,,,,,,,,,"NL",,,,,,,,,,,,,,,,,,,,,,,,,,,,,,,,,,,,,,,,,,,,,,,,,,,
,,,,,,,,,,,,,,"FI",,,,,,,,,,,,,,,,,,,,,,,,,,,,,,,,,,,,,,,,,,,,,,,,,,,
,,,,,,,,,,,,,,"RU",,,,,,,,,,,,,,,,,,,,,,,,,,,,,,,,,,,,,,,,,,,,,,,,,,,
,,,,,,,,,,,,,,"PT",,,,,,,,,,,,,,,,,,,,,,,,,,,,,,,,,,,,,,,,,,,,,,,,,,,
,,,,,,,,,,,,,,"TH",,,,,,,,,,,,,,,,,,,,,,,,,,,,,,,,,,,,,,,,,,,,,,,,,,,
"WORD_ASIA","sc/ui.sc","flag_gb","Longest Word Asia",107,"false","false","localization/texts.csv","TRUE",,,,"en",,"EN","TRUE","http://www.supr.cl/bsc","https://www.bsesports.cn/bscrule.html","http://supercell.com/en/terms-of-service/","http://www.supercell.com/en/parents/","http://www.supercell.com/en/privacy-policy/","https://inbox.brawlstars.com/",,"https://staging.inbox.brawlstars.com/",,"https://inbox.brawlstars.com/community/",,"https://staging.inbox.brawlstars.com/community/",,"https://inbox.brawlstars.com/esport/",,"https://staging.inbox.brawlstars.com/esport/",,"https://brawlstars.scescdn.com/en",,"https://brawlstars-dev.scescdn.com/en",,,"https://supercell.helpshift.com/a/brawl-stars/?p=ios&l=en","https://supercellcn.hsftcn.cn/a/brawl-stars-china/?p=ios&l=zh","https://supercell.helpshift.com/a/brawl-stars/?p=android&l=en","https://supercellcn.hsftcn.cn/a/brawl-stars-china/?p=android&l=zh","https://help.supercellsupport.com/brawl-stars/en/articles/contact-form.html?contact=1","https://help.supercellsupport.cn/brawl-stars/zh_cn/articles/contact-form.html?contact=1","https://help.supercellsupport.com/brawl-stars/en/articles/contact-form.html?contact=1","https://help.supercellsupport.cn/brawl-stars/zh_cn/articles/contact-form.html?contact=1",,,,,,,"https://ingame.help.supercellsupport.com/brawl-stars/en/index.html",,,"TRUE",,,,,,,,,,
,,,,,,,,,,,,,,"DE",,,,,,,,,,,,,,,,,,,,,,,,,,,,,,,,,,,,,,,,,,,,,,,,,,,
,,,,,,,,,,,,,,"FR",,,,,,,,,,,,,,,,,,,,,,,,,,,,,,,,,,,,,,,,,,,,,,,,,,,
,,,,,,,,,,,,,,"IT",,,,,,,,,,,,,,,,,,,,,,,,,,,,,,,,,,,,,,,,,,,,,,,,,,,
,,,,,,,,,,,,,,"ES",,,,,,,,,,,,,,,,,,,,,,,,,,,,,,,,,,,,,,,,,,,,,,,,,,,
,,,,,,,,,,,,,,"AR",,,,,,,,,,,,,,,,,,,,,,,,,,,,,,,,,,,,,,,,,,,,,,,,,,,
,,,,,,,,,,,,,,"TR",,,,,,,,,,,,,,,,,,,,,,,,,,,,,,,,,,,,,,,,,,,,,,,,,,,
,,,,,,,,,,,,,,"ID",,,,,,,,,,,,,,,,,,,,,,,,,,,,,,,,,,,,,,,,,,,,,,,,,,,
,,,,,,,,,,,,,,"MS",,,,,,,,,,,,,,,,,,,,,,,,,,,,,,,,,,,,,,,,,,,,,,,,,,,
,,,,,,,,,,,,,,"VI",,,,,,,,,,,,,,,,,,,,,,,,,,,,,,,,,,,,,,,,,,,,,,,,,,,
,,,,,,,,,,,,,,"NL",,,,,,,,,,,,,,,,,,,,,,,,,,,,,,,,,,,,,,,,,,,,,,,,,,,
,,,,,,,,,,,,,,"FI",,,,,,,,,,,,,,,,,,,,,,,,,,,,,,,,,,,,,,,,,,,,,,,,,,,
,,,,,,,,,,,,,,"RU",,,,,,,,,,,,,,,,,,,,,,,,,,,,,,,,,,,,,,,,,,,,,,,,,,,
,,,,,,,,,,,,,,"PT",,,,,,,,,,,,,,,,,,,,,,,,,,,,,,,,,,,,,,,,,,,,,,,,,,,
,,,,,,,,,,,,,,"TH",,,,,,,,,,,,,,,,,,,,,,,,,,,,,,,,,,,,,,,,,,,,,,,,,,,
"PL","sc/ui.sc","flag_gb","Polski",19,"true","false","localization/pl.csv",,,,,"pl",,,,"http://www.supr.cl/bsc","https://www.bsesports.cn/bscrule.html","http://supercell.com/en/terms-of-service/","http://www.supercell.com/en/parents/","http://www.supercell.com/en/privacy-policy/","https://inbox.brawlstars.com/pl/",,"https://staging.inbox.brawlstars.com/pl/",,"https://inbox.brawlstars.com/pl/community/",,"https://staging.inbox.brawlstars.com/pl/community/",,"https://inbox.brawlstars.com/pl/esport/",,"https://staging.inbox.brawlstars.com/pl/esport/",,"https://brawlstars.scescdn.com/pl",,"https://brawlstars-dev.scescdn.com/pl",,"pl","https://supercell.helpshift.com/a/brawl-stars/?p=ios&l=en","https://supercellcn.hsftcn.cn/a/brawl-stars-china/?p=ios&l=zh","https://supercell.helpshift.com/a/brawl-stars/?p=android&l=en","https://supercellcn.hsftcn.cn/a/brawl-stars-china/?p=android&l=zh","https://help.supercellsupport.com/brawl-stars/en/articles/contact-form.html?contact=1","https://help.supercellsupport.cn/brawl-stars/zh_cn/articles/contact-form.html?contact=1","https://help.supercellsupport.com/brawl-stars/en/articles/contact-form.html?contact=1","https://help.supercellsupport.cn/brawl-stars/zh_cn/articles/contact-form.html?contact=1",,,,,,,"https://ingame.help.supercellsupport.com/brawl-stars/en/index.html",,,"TRUE",,,,,,,,,,
"HE","sc/ui.sc","flag_gb","עברית",20,"true","false","localization/he.csv",,,,,"iw",,,,"http://www.supr.cl/bsc","https://www.bsesports.cn/bscrule.html","http://supercell.com/en/terms-of-service/","http://www.supercell.com/en/parents/","http://www.supercell.com/en/privacy-policy/","https://inbox.brawlstars.com/",,"https://staging.inbox.brawlstars.com/",,"https://inbox.brawlstars.com/community/",,"https://staging.inbox.brawlstars.com/community/",,"https://inbox.brawlstars.com/esport/",,"https://staging.inbox.brawlstars.com/esport/",,"https://brawlstars.scescdn.com/en",,"https://brawlstars-dev.scescdn.com/en",,"he","https://supercell.helpshift.com/a/brawl-stars/?p=ios&l=en","https://supercellcn.hsftcn.cn/a/brawl-stars-china/?p=ios&l=zh","https://supercell.helpshift.com/a/brawl-stars/?p=android&l=en","https://supercellcn.hsftcn.cn/a/brawl-stars-china/?p=android&l=zh","https://help.supercellsupport.com/brawl-stars/en/articles/contact-form.html?contact=1","https://help.supercellsupport.cn/brawl-stars/zh_cn/articles/contact-form.html?contact=1","https://help.supercellsupport.com/brawl-stars/en/articles/contact-form.html?contact=1","https://help.supercellsupport.cn/brawl-stars/zh_cn/articles/contact-form.html?contact=1",,"TRUE",,,,,"https://ingame.help.supercellsupport.com/brawl-stars/en/index.html",,,"TRUE",,,,,,,,,,
